NORAD_CAT_ID,OBJECT_NAME,OBJECT_TYPE,EPOCH,MEAN_MOTION,ECCENTRICITY,INCLINATION,RA_OF_ASC_NODE,ARG_OF_PERICENTER,MEAN_ANOMALY,BSTAR,MEAN_MOTION_DOT,MEAN_MOTION_DDOT,TLE_LINE0,TLE_LINE1,TLE_LINE2,SEMIMAJOR_AXIS,PERIOD,APOGEE,PERIGEE,DECAYED
53416.0,STARLINK-4480,PAYLOAD,2023-03-27 13:16:28,15.08852725,0.0001165,53.2159,274.0169,114.9763,245.135,0.00062903,9.741e-05,0.0,0 STARLINK-4480,1 53416U 22097AE  23086.55310623  .00009741  00000-0  62903-3 0  9997,2 53416  53.2159 274.0169 0001165 114.9763 245.1350 15.08852725 35864,6917.841,95.437,540.512,538.901,0.0
53416.0,STARLINK-4480,PAYLOAD,2023-03-27 19:38:00,15.08855829,0.000119,53.2157,272.8277,116.5804,243.5311,0.00063158,9.782e-05,0.0,0 STARLINK-4480,1 53416U 22097AE  23086.81806307  .00009782  00000-0  63158-3 0  9993,2 53416  53.2157 272.8277 0001190 116.5804 243.5311 15.08855829 35902,6917.832,95.437,540.52,538.874,0.0
53416.0,STARLINK-4480,PAYLOAD,2023-03-28 13:07:14,15.08853262,9.96e-05,53.2158,269.5553,112.6012,247.5086,0.00014353,1.998e-05,0.0,0 STARLINK-4480,1 53416U 22097AE  23087.54669695  .00001998  00000-0  14353-3 0  9995,2 53416  53.2158 269.5553 0000996 112.6012 247.5086 15.08853262 36019,6917.84,95.437,540.394,539.016,0.0
53416.0,STARLINK-4480,PAYLOAD,2023-03-28 16:18:00,15.08850284,7.36e-05,53.2148,268.9601,103.3587,256.7487,7.2698e-05,8.7e-06,0.0,0 STARLINK-4480,1 53416U 22097AE  23087.67917704  .00000870  00000-0  72698-4 0  9991,2 53416  53.2148 268.9601 0000736 103.3587 256.7487 15.08850284 35579,6917.849,95.437,540.223,539.205,0.0
53416.0,STARLINK-4480,PAYLOAD,2023-03-28 19:28:47,15.08852882,7.61e-05,53.2145,268.3651,103.9193,256.1884,0.00012114,1.641e-05,0.0,0 STARLINK-4480,1 53416U 22097AE  23087.81165564  .00001641  00000-0  12114-3 0  9999,2 53416  53.2145 268.3651 0000761 103.9193 256.1884 15.08852882 36057,6917.841,95.437,540.232,539.18,0.0
53416.0,STARLINK-4480,PAYLOAD,2023-03-29 11:22:38,15.0884401,0.0001047,53.2153,265.3918,92.6751,267.4361,-1.532e-05,-5.32e-06,0.0,0 STARLINK-4480,1 53416U 22097AE  23088.47405745 -.00000532  00000-0 -15320-4 0  9993,2 53416  53.2153 265.3918 0001047  92.6751 267.4361 15.08844010 35699,6917.868,95.437,540.457,539.009,0.0
53416.0,STARLINK-4480,PAYLOAD,2023-03-29 19:19:33,15.08851316,9.15e-05,53.2153,263.906,84.6109,275.4988,6.5434e-05,7.54e-06,0.0,0 STARLINK-4480,1 53416U 22097AE  23088.80525453  .00000754  00000-0  65434-4 0  9994,2 53416  53.2153 263.9060 0000915  84.6109 275.4988 15.08851316 36201,6917.846,95.437,540.344,539.078,0.0
53416.0,STARLINK-4480,PAYLOAD,2023-03-30 17:34:58,15.08846672,0.0001367,53.2159,259.7431,77.3612,282.7533,0.00015063,2.111e-05,0.0,0 STARLINK-4480,1 53416U 22097AE  23089.73261643  .00002111  00000-0  15063-3 0  9996,2 53416  53.2159 259.7431 0001367  77.3612 282.7533 15.08846672 35881,6917.86,95.437,540.671,538.779,0.0
53416.0,STARLINK-4480,PAYLOAD,2023-03-31 11:04:12,15.08839152,0.0001083,53.2153,256.4725,84.3877,275.7239,5.7392e-05,6.26e-06,0.0,0 STARLINK-4480,1 53416U 22097AE  23090.46125823  .00000626  00000-0  57392-4 0  9998,2 53416  53.2153 256.4725 0001083  84.3877 275.7239 15.08839152 35993,6917.883,95.438,540.497,538.999,0.0
53416.0,STARLINK-4480,PAYLOAD,2023-04-01 10:55:00,15.08836492,0.000129,53.2159,252.0137,69.4127,290.7004,9.4575e-05,1.217e-05,0.0,0 STARLINK-4480,1 53416U 22097AE  23091.45486263  .00001217  00000-0  94575-4 0  9997,2 53416  53.2159 252.0137 0001290  69.4127 290.7004 15.08836492 36600,6917.891,95.438,540.649,538.864,0.0
53416.0,STARLINK-4480,PAYLOAD,2023-04-01 14:05:46,15.08832248,0.0001098,53.2167,251.4162,86.9456,273.1662,6.8842e-05,8.08e-06,0.0,0 STARLINK-4480,1 53416U 22097AE  23091.58734471  .00000808  00000-0  68842-4 0  9991,2 53416  53.2167 251.4162 0001098  86.9456 273.1662 15.08832248 36166,6917.904,95.438,540.529,539.009,0.0
53416.0,STARLINK-4480,PAYLOAD,2023-04-01 17:16:32,15.08835037,0.0001113,53.2153,250.8203,90.5252,269.5868,-2.1422e-05,-6.29e-06,0.0,0 STARLINK-4480,1 53416U 22097AE  23091.71982322 -.00000629  00000-0 -21422-4 0  9992,2 53416  53.2153 250.8203 0001113  90.5252 269.5868 15.08835037 36642,6917.896,95.438,540.531,538.991,0.0
53416.0,STARLINK-4480,PAYLOAD,2023-04-02 13:56:33,15.08839712,0.0001122,53.2155,246.9551,83.8829,276.2291,0.00019851,2.873e-05,0.0,0 STARLINK-4480,1 53416U 22097AE  23092.58094394  .00002873  00000-0  19851-3 0  9994,2 53416  53.2155 246.9551 0001122  83.8829 276.2291 15.08839712 36774,6917.881,95.438,540.522,538.97,0.0
53416.0,STARLINK-4480,PAYLOAD,2023-04-02 17:07:19,15.08849937,0.000114,53.2147,246.3599,78.9505,281.1615,0.00030181,4.52e-05,0.0,0 STARLINK-4480,1 53416U 22097AE  23092.71341899  .00004520  00000-0  30181-3 0  9994,2 53416  53.2147 246.3599 0001140  78.9505 281.1615 15.08849937 36334,6917.85,95.437,540.504,538.926,0.0
53416.0,STARLINK-4480,PAYLOAD,2023-04-03 10:36:34,15.08836472,0.0001326,53.2157,243.0934,71.1764,288.9372,0.0002059,2.99e-05,0.0,0 STARLINK-4480,1 53416U 22097AE  23093.44206755  .00002990  00000-0  20590-3 0  9998,2 53416  53.2157 243.0934 0001326  71.1764 288.9372 15.08836472 36447,6917.891,95.438,540.673,538.839,0.0
53416.0,STARLINK-4480,PAYLOAD,2023-04-03 16:58:06,15.08842595,0.0001565,53.2159,241.9027,91.08,269.0371,0.0002168,3.164e-05,0.0,0 STARLINK-4480,1 53416U 22097AE  23093.70702442  .00003164  00000-0  21680-3 0  9996,2 53416  53.2159 241.9027 0001565  91.0800 269.0371 15.08842595 36943,6917.872,95.437,540.82,538.655,0.0
53416.0,STARLINK-4480,PAYLOAD,2023-04-04 08:51:58,15.0884019,8.74e-05,53.2158,238.9276,65.8039,294.3045,-4.5473e-06,-3.6e-06,0.0,0 STARLINK-4480,1 53416U 22097AE  23094.36942431 -.00000360  00000-0 -45473-5 0  9998,2 53416  53.2158 238.9276 0000874  65.8039 294.3045 15.08840190 37049,6917.88,95.438,540.349,539.14,0.0
53416.0,STARLINK-4480,PAYLOAD,2023-04-04 19:59:39,15.08851572,3.65e-05,53.2154,236.8437,58.8735,301.2293,0.00014093,1.957e-05,0.0,0 STARLINK-4480,1 53416U 22097AE  23094.83309641  .00001957  00000-0  14093-3 0  9993,2 53416  53.2154 236.8437 0000365  58.8735 301.2293 15.08851572 36656,6917.845,95.437,539.963,539.458,0.0
53416.0,STARLINK-4480,PAYLOAD,2023-04-05 13:28:55,15.08831786,0.0001518,53.2178,233.5774,86.2065,273.9101,-3.7152e-05,-8.79e-06,0.0,0 STARLINK-4480,1 53416U 22097AE  23095.56175306 -.00000879  00000-0 -37152-4 0  9999,2 53416  53.2178 233.5774 0001518  86.2065 273.9101 15.08831786 37224,6917.905,95.438,540.821,538.72,0.0
53416.0,STARLINK-4480,PAYLOAD,2023-04-05 15:04:18,15.08838302,0.0001066,53.2142,233.2756,82.763,277.3484,6.495e-05,7.46e-06,0.0,0 STARLINK-4480,1 53416U 22097AE  23095.62798956  .00000746  00000-0  64950-4 0  9995,2 53416  53.2142 233.2756 0001066  82.7630 277.3484 15.08838302 36771,6917.886,95.438,540.488,539.013,0.0
53416.0,STARLINK-4480,PAYLOAD,2023-04-05 16:39:41,15.08836849,0.0001399,53.2152,232.9796,70.401,289.7133,5.0646e-05,5.18e-06,0.0,0 STARLINK-4480,1 53416U 22097AE  23095.69423137  .00000518  00000-0  50646-4 0  9992,2 53416  53.2152 232.9796 0001399  70.4010 289.7133 15.08836849 37242,6917.89,95.438,540.723,538.787,0.0
53416.0,STARLINK-4480,PAYLOAD,2023-04-06 10:08:56,15.08838867,0.0001322,53.2162,229.7089,92.7253,267.389,0.00013129,1.802e-05,0.0,0 STARLINK-4480,1 53416U 22097AE  23096.42287135  .00001802  00000-0  13129-3 0  9991,2 53416  53.2162 229.7089 0001322  92.7253 267.3890 15.08838867 37350,6917.884,95.438,540.663,538.834,0.0
53416.0,STARLINK-4480,PAYLOAD,2023-04-06 18:05:50,15.0885417,6.42e-05,53.2161,228.2187,84.5417,275.5648,0.00023124,3.396e-05,0.0,0 STARLINK-4480,1 53416U 22097AE  23096.75406047  .00003396  00000-0  23124-3 0  9998,2 53416  53.2161 228.2187 0000642  84.5417 275.5648 15.08854170 36948,6917.837,95.437,540.146,539.258,0.0
53416.0,STARLINK-4480,PAYLOAD,2023-04-07 02:02:47,15.08843642,0.0002553,53.2158,226.735,80.106,280.022,-8.7125e-06,-4.27e-06,0.0,0 STARLINK-4480,1 53416U 22097AE  23097.08527103 -.00000427  00000-0 -87125-5 0  9999,2 53416  53.2158 226.7350 0002553  80.1060 280.0220 15.08843642 36992,6917.869,95.437,541.5,537.968,0.0
53416.0,STARLINK-4480,PAYLOAD,2023-04-07 08:24:19,15.08841603,0.0001536,53.2155,225.5464,77.9998,282.1167,0.000177,2.53e-05,0.0,0 STARLINK-4480,1 53416U 22097AE  23097.35023058  .00002530  00000-0  17700-3 0  9994,2 53416  53.2155 225.5464 0001536  77.9998 282.1167 15.08841603 37490,6917.875,95.437,540.803,538.678,0.0
53416.0,STARLINK-4480,PAYLOAD,2023-04-08 11:25:53,15.0883254,7.66e-05,53.2169,220.4908,83.207,276.9009,6.1387e-05,6.89e-06,0.0,0 STARLINK-4480,1 53416U 22097AE  23098.47631338  .00000689  00000-0  61387-4 0  9998,2 53416  53.2169 220.4908 0000766  83.2070 276.9009 15.08832540 37202,6917.903,95.438,540.298,539.238,0.0
53416.0,STARLINK-4480,PAYLOAD,2023-04-09 11:16:40,15.0884848,0.0001916,53.2149,216.0287,89.4162,270.7049,-0.00035247,-5.895e-05,0.0,0 STARLINK-4480,1 53416U 22097AE  23099.46990818 -.00005895  00000-0 -35247-3 0  9990,2 53416  53.2149 216.0287 0001916  89.4162 270.7049 15.08848480 37812,6917.854,95.437,541.045,538.394,0.0
53416.0,STARLINK-4480,PAYLOAD,2023-04-09 12:52:03,15.08834978,0.0001378,53.2157,215.7317,94.572,265.543,6.5216e-05,7.5e-06,0.0,0 STARLINK-4480,1 53416U 22097AE  23099.53615581  .00000750  00000-0  65216-4 0  9992,2 53416  53.2157 215.7317 0001378  94.5720 265.5430 15.08834978 37363,6917.896,95.438,540.714,538.807,0.0
53416.0,STARLINK-4480,PAYLOAD,2023-04-10 07:56:41,15.08842408,0.0001422,53.2158,212.164,90.4381,269.6774,0.00024274,3.578e-05,0.0,0 STARLINK-4480,1 53416U 22097AE  23100.33103391  .00003578  00000-0  24274-3 0  9993,2 53416  53.2158 212.1640 0001422  90.4381 269.6774 15.08842408 37949,6917.873,95.437,540.722,538.754,0.0
53416.0,STARLINK-4480,PAYLOAD,2023-04-11 12:33:36,15.0885155,0.0001576,53.2179,206.8121,98.8909,261.2262,0.00017973,2.574e-05,0.0,0 STARLINK-4480,1 53416U 22097AE  23101.52334444  .00002574  00000-0  17973-3 0  9993,2 53416  53.2179 206.8121 0001576  98.8909 261.2262 15.08851550 38123,6917.845,95.437,540.8,538.62,0.0
